[
    {
        "CCSDS_OMM_VERS": "3.0",
        "COMMENT": "GENERATED VIA SPACE-TRACK.ORG API",
        "CREATION_DATE": "2025-05-04T02:26:54",
        "ORIGINATOR": "18 SPCS",
        "OBJECT_NAME": "COSMOS 2547 (GLONASS)",
        "OBJECT_ID": "2020-075A",
        "CENTER_NAME": "EARTH",
        "REF_FRAME": "TEME",
        "TIME_SYSTEM": "UTC",
        "MEAN_ELEMENT_THEORY": "SGP4",
        "EPOCH": "2025-05-03T17:55:17.096160",
        "MEAN_MOTION": "2.13100386",
        "ECCENTRICITY": "0.00080300",
        "INCLINATION": "64.5948",
        "RA_OF_ASC_NODE": "206.1442",
        "ARG_OF_PERICENTER": "237.8412",
        "MEAN_ANOMALY": "122.1296",
        "EPHEMERIS_TYPE": "0",
        "CLASSIFICATION_TYPE": "U",
        "NORAD_CAT_ID": "46805",
        "ELEMENT_SET_NO": "999",
        "REV_AT_EPOCH": "3518",
        "BSTAR": "0.00000000000000",
        "MEAN_MOTION_DOT": "-0.00000019",
        "MEAN_MOTION_DDOT": "0.0000000000000",
        "SEMIMAJOR_AXIS": "25508.153",
        "PERIOD": "675.738",
        "APOAPSIS": "19150.501",
        "PERIAPSIS": "19109.535",
        "OBJECT_TYPE": "PAYLOAD",
        "RCS_SIZE": "LARGE",
        "COUNTRY_CODE": "CIS",
        "LAUNCH_DATE": "2020-10-25",
        "SITE": "PKMTR",
        "DECAY_DATE": null,
        "FILE": "4718307",
        "GP_ID": "286801039",
        "TLE_LINE0": "0 COSMOS 2547 (GLONASS)",
        "TLE_LINE1": "1 46805U 20075A   25123.74672565 -.00000019  00000-0  00000-0 0  9993",
        "TLE_LINE2": "2 46805  64.5948 206.1442 0008030 237.8412 122.1296  2.13100386 35182"
    }
]